NORAD_CAT_ID,OBJECT_NAME,OBJECT_TYPE,EPOCH,MEAN_MOTION,ECCENTRICITY,INCLINATION,RA_OF_ASC_NODE,ARG_OF_PERICENTER,MEAN_ANOMALY,BSTAR,MEAN_MOTION_DOT,MEAN_MOTION_DDOT,TLE_LINE0,TLE_LINE1,TLE_LINE2,SEMIMAJOR_AXIS,PERIOD,APOGEE,PERIGEE,DECAYED
52478.0,STARLINK-3825,PAYLOAD,2023-08-02 21:09:41,15.08859812,0.0001039,53.2181,2.975,95.2422,264.8689,0.00031998,4.811e-05,0.0,0 STARLINK-3825,1 52478U 22049AD  23214.88173010  .00004811  00000-0  31998-3 0  9990,2 52478  53.2181   2.9750 0001039  95.2422 264.8689 15.08859812 69025,6917.82,95.436,540.404,538.966,0.0
52478.0,STARLINK-3825,PAYLOAD,2023-08-03 09:52:47,15.08840992,0.0001161,53.2178,0.5972,86.8026,273.3099,0.00016598,2.355e-05,0.0,0 STARLINK-3825,1 52478U 22049AD  23215.41166057  .00002355  00000-0  16598-3 0  9993,2 52478  53.2178   0.5972 0001161  86.8026 273.3099 15.08840992 69101,6917.877,95.437,540.546,538.939,0.0
52478.0,STARLINK-3825,PAYLOAD,2023-08-03 21:00:28,15.08856283,0.0001053,53.2185,358.5153,94.0775,266.0337,0.00032829,4.943e-05,0.0,0 STARLINK-3825,1 52478U 22049AD  23215.87533247  .00004943  00000-0  32829-3 0  9992,2 52478  53.2185 358.5153 0001053  94.0775 266.0337 15.08856283 69179,6917.831,95.437,540.424,538.967,0.0
52478.0,STARLINK-3825,PAYLOAD,2023-08-04 09:43:34,15.08838776,0.0001418,53.2188,356.1344,92.2007,267.9148,6.4474e-06,-1.85e-06,0.0,0 STARLINK-3825,1 52478U 22049AD  23216.40525871 -.00000185  00000-0  64474-5 0  9994,2 52478  53.2188 356.1344 0001418  92.2007 267.9148 15.08838776 69257,6917.884,95.438,540.73,538.768,0.0
52478.0,STARLINK-3825,PAYLOAD,2023-08-04 20:51:16,15.08851967,0.0001177,53.2184,354.0551,88.3775,271.7352,0.00089372,0.00013969,0.0,0 STARLINK-3825,1 52478U 22049AD  23216.86893829  .00013969  00000-0  89372-3 0  9990,2 52478  53.2184 354.0551 0001177  88.3775 271.7352 15.08851967 69325,6917.844,95.437,540.523,538.895,0.0
52478.0,STARLINK-3825,PAYLOAD,2023-08-05 09:34:21,15.08854717,9.82e-05,53.2184,351.6763,102.0721,258.0381,0.0012194,0.0001918,0.0,0 STARLINK-3825,1 52478U 22049AD  23217.39885794  .00019180  00000-0  12194-2 0  9999,2 52478  53.2184 351.6763 0000982 102.0721 258.0381 15.08854717 69406,6917.835,95.437,540.38,539.021,0.0
52478.0,STARLINK-3825,PAYLOAD,2023-08-06 01:28:12,15.0883529,0.0002333,53.2184,348.7039,72.5434,287.5813,0.00029783,4.454e-05,0.0,0 STARLINK-3825,1 52478U 22049AD  23218.06126079  .00004454  00000-0  29783-3 0  9999,2 52478  53.2184 348.7039 0002333  72.5434 287.5813 15.08835290 69506,6917.895,95.438,541.374,538.146,0.0
52478.0,STARLINK-3825,PAYLOAD,2023-08-06 18:57:28,15.08802123,0.0001195,53.217,345.4334,56.9951,303.1156,0.001287,0.00020233,0.0,0 STARLINK-3825,1 52478U 22049AD  23218.78991770  .00020233  00000-0  12870-2 0  9997,2 52478  53.2170 345.4334 0001195  56.9951 303.1156 15.08802123 69614,6917.996,95.44,540.688,539.034,0.0
52478.0,STARLINK-3825,PAYLOAD,2023-08-08 01:09:49,15.08858839,0.0001254,53.2152,339.7832,56.6067,303.5045,0.0014565,0.0002298,0.0,0 STARLINK-3825,1 52478U 22049AD  23220.04848425  .00022980  00000-0  14565-2 0  9991,2 52478  53.2152 339.7832 0001254  56.6067 303.5045 15.08858839 69801,6917.823,95.436,540.555,538.82,0.0
52478.0,STARLINK-3825,PAYLOAD,2023-08-09 18:29:51,15.0877403,0.0001164,53.2151,332.0519,75.8391,284.273,0.0012784,0.0002008,0.0,0 STARLINK-3825,1 52478U 22049AD  23221.77073329  .00020080  00000-0  12784-2 0  9995,2 52478  53.2151 332.0519 0001164  75.8391 284.2730 15.08774030 70067,6918.082,95.442,540.752,539.142,0.0
52478.0,STARLINK-3825,PAYLOAD,2023-08-10 10:23:42,15.08853821,0.0001232,53.2161,329.0787,68.6412,291.4711,0.0017105,0.0002705,0.0,0 STARLINK-3825,1 52478U 22049AD  23222.43313227  .00027050  00000-0  17105-2 0  9999,2 52478  53.2161 329.0787 0001232  68.6412 291.4711 15.08853821 70167,6917.838,95.437,540.555,538.851,0.0
52478.0,STARLINK-3825,PAYLOAD,2023-08-11 00:42:09,15.08875124,0.0001118,53.217,326.4003,76.0734,284.0382,0.00099302,0.00015566,0.0,0 STARLINK-3825,1 52478U 22049AD  23223.02928181  .00015566  00000-0  99302-3 0  9995,2 52478  53.2170 326.4003 0001118  76.0734 284.0382 15.08875124 70254,6917.773,95.435,540.411,538.865,0.0
52478.0,STARLINK-3825,PAYLOAD,2023-08-11 10:14:28,15.08877016,0.0001095,53.2165,324.6167,89.3697,270.7421,0.00026813,3.986e-05,0.0,0 STARLINK-3825,1 52478U 22049AD  23223.42671508  .00003986  00000-0  26813-3 0  9997,2 52478  53.2165 324.6167 0001095  89.3697 270.7421 15.08877016 70313,6917.767,95.435,540.39,538.875,0.0
52478.0,STARLINK-3825,PAYLOAD,2023-08-12 10:05:14,15.08850281,8.95e-05,53.2162,320.1555,79.4922,280.6171,0.00025519,3.777e-05,0.0,0 STARLINK-3825,1 52478U 22049AD  23224.42031018  .00003777  00000-0  25519-3 0  9994,2 52478  53.2162 320.1555 0000895  79.4922 280.6171 15.08850281 70463,6917.849,95.437,540.333,539.095,0.0
52478.0,STARLINK-3825,PAYLOAD,2023-08-12 22:48:19,15.08845419,0.0001122,53.2165,317.7777,78.9303,281.1815,-0.00011552,-2.126e-05,0.0,0 STARLINK-3825,1 52478U 22049AD  23224.95023005 -.00002126  00000-0 -11552-3 0  9990,2 52478  53.2165 317.7777 0001122  78.9303 281.1815 15.08845419 70542,6917.864,95.437,540.505,538.953,0.0
52478.0,STARLINK-3825,PAYLOAD,2023-08-14 09:46:49,15.08840251,0.0001101,53.2165,311.2365,83.9466,276.1652,6.8654e-05,8.05e-06,0.0,0 STARLINK-3825,1 52478U 22049AD  23226.40751303  .00000805  00000-0  68654-4 0  9997,2 52478  53.2165 311.2365 0001101  83.9466 276.1652 15.08840251 70763,6917.88,95.438,540.506,538.983,0.0
52478.0,STARLINK-3825,PAYLOAD,2023-08-15 11:12:59,15.08840728,0.0001136,53.2174,306.479,86.73,273.3823,7.9815e-05,9.83e-06,0.0,0 STARLINK-3825,1 52478U 22049AD  23227.46735501  .00000983  00000-0  79815-4 0  9994,2 52478  53.2174 306.4790 0001136  86.7300 273.3823 15.08840728 70923,6917.878,95.438,540.529,538.957,0.0
52478.0,STARLINK-3825,PAYLOAD,2023-08-16 17:25:19,15.08821692,0.0001645,53.2183,300.8292,105.3213,254.7961,0.00043997,6.718e-05,0.0,0 STARLINK-3825,1 52478U 22049AD  23228.72591890  .00006718  00000-0  43997-3 0  9998,2 52478  53.2183 300.8292 0001645 105.3213 254.7961 15.08821692 71111,6917.936,95.439,540.939,538.663,0.0
52478.0,STARLINK-3825,PAYLOAD,2023-08-17 10:54:33,15.08843258,0.0001305,53.2166,297.5581,79.0771,281.0368,8.5038e-05,1.066e-05,0.0,0 STARLINK-3825,1 52478U 22049AD  23229.45455269  .00001066  00000-0  85038-4 0  9992,2 52478  53.2166 297.5581 0001305  79.0771 281.0368 15.08843258 71222,6917.87,95.437,540.638,538.833,0.0
52478.0,STARLINK-3825,PAYLOAD,2023-08-17 22:02:15,15.0883822,0.0001438,53.2189,295.476,81.7343,278.3813,4.3622e-05,4.06e-06,0.0,0 STARLINK-3825,1 52478U 22049AD  23229.91823684  .00000406  00000-0  43622-4 0  9993,2 52478  53.2189 295.4760 0001438  81.7343 278.3813 15.08838220 71299,6917.886,95.438,540.746,538.756,0.0
52478.0,STARLINK-3825,PAYLOAD,2023-08-19 10:36:07,15.08844712,0.0001222,53.2173,288.636,87.4249,272.6883,7.9827e-06,-1.61e-06,0.0,0 STARLINK-3825,1 52478U 22049AD  23231.44175391 -.00000161  00000-0  79827-5 0  9995,2 52478  53.2173 288.6360 0001222  87.4249 272.6883 15.08844712 71524,6917.866,95.437,540.576,538.886,0.0
52478.0,STARLINK-3825,PAYLOAD,2023-08-20 10:26:55,15.08834078,0.0001454,53.2173,284.1736,115.7373,244.3769,9.1369e-06,-1.43e-06,0.0,0 STARLINK-3825,1 52478U 22049AD  23232.43536120 -.00000143  00000-0  91369-5 0  9991,2 52478  53.2173 284.1736 0001454 115.7373 244.3769 15.08834078 71671,6917.898,95.438,540.769,538.758,0.0
52478.0,STARLINK-3825,PAYLOAD,2023-08-21 08:42:18,15.08841286,0.0001316,53.2164,280.0112,97.6707,262.4434,4.7459e-05,4.68e-06,0.0,0 STARLINK-3825,1 52478U 22049AD  23233.36271853  .00000468  00000-0  47459-4 0  9992,2 52478  53.2164 280.0112 0001316  97.6707 262.4434 15.08841286 71815,6917.876,95.437,540.652,538.831,0.0
52478.0,STARLINK-3825,PAYLOAD,2023-08-22 11:43:52,15.08839944,0.0001307,53.2161,274.9558,91.9609,268.1533,9.0195e-05,1.148e-05,0.0,0 STARLINK-3825,1 52478U 22049AD  23234.48880115  .00001148  00000-0  90195-4 0  9994,2 52478  53.2161 274.9558 0001307  91.9609 268.1533 15.08839944 71985,6917.881,95.438,540.65,538.841,0.0
52478.0,STARLINK-3825,PAYLOAD,2023-08-24 09:50:03,15.08842951,0.0001319,53.2152,266.3316,88.6872,271.4272,5.8106e-05,6.37e-06,0.0,0 STARLINK-3825,1 52478U 22049AD  23236.40976154  .00000637  00000-0  58106-4 0  9995,2 52478  53.2152 266.3316 0001319  88.6872 271.4272 15.08842951 73352,6917.871,95.437,540.649,538.824,0.0
52478.0,STARLINK-3825,PAYLOAD,2023-08-25 08:05:27,15.08844605,0.0001413,53.2154,262.1699,84.1968,275.9185,5.672e-05,6.15e-06,0.0,0 STARLINK-3825,1 52478U 22049AD  23237.33712023  .00000615  00000-0  56720-4 0  9997,2 52478  53.2154 262.1699 0001413  84.1968 275.9185 15.08844605 72410,6917.866,95.437,540.709,538.754,0.0
52478.0,STARLINK-3825,PAYLOAD,2023-08-25 11:16:13,15.08846928,0.0001401,53.2152,261.5748,86.2068,273.9084,7.61e-05,9.24e-06,0.0,0 STARLINK-3825,1 52478U 22049AD  23237.46959774  .00000924  00000-0  76100-4 0  9994,2 52478  53.2152 261.5748 0001401  86.2068 273.9084 15.08846928 73515,6917.859,95.437,540.693,538.755,0.0
52478.0,STARLINK-3825,PAYLOAD,2023-08-26 07:56:14,15.08839667,0.0001418,53.215,257.7088,89.2109,270.9046,2.9634e-05,1.84e-06,0.0,0 STARLINK-3825,1 52478U 22049AD  23238.33072304  .00000184  00000-0  29634-4 0  9994,2 52478  53.2150 257.7088 0001418  89.2109 270.9046 15.08839667 72565,6917.881,95.438,540.727,538.765,0.0
52478.0,STARLINK-3825,PAYLOAD,2023-08-26 11:07:00,15.08842498,0.0001416,53.2152,257.1143,89.1066,271.0089,5.4079e-05,5.73e-06,0.0,0 STARLINK-3825,1 52478U 22049AD  23238.46320042  .00000573  00000-0  54079-4 0  9996,2 52478  53.2152 257.1143 0001416  89.1066 271.0089 15.08842498 73669,6917.873,95.437,540.717,538.758,0.0
52478.0,STARLINK-3825,PAYLOAD,2023-08-27 06:11:38,15.08838449,0.0001519,53.2155,253.5461,96.0984,264.0181,-1.1113e-05,-4.65e-06,0.0,0 STARLINK-3825,1 52478U 22049AD  23239.25808499 -.00000465  00000-0 -11113-4 0  9995,2 52478  53.2155 253.5461 0001519  96.0984 264.0181 15.08838449 73784,6917.885,95.438,540.801,538.699,0.0
